[{"OBJECT_NAME":"STARLINK-35864","OBJECT_ID":"2025-298G","EPOCH":"2026-03-09T23:27:56.636640","MEAN_MOTION":14.98572932,"ECCENTRICITY":0.00033352,"INCLINATION":70.0031,"RA_OF_ASC_NODE":13.6076,"ARG_OF_PERICENTER":298.5733,"MEAN_ANOMALY":61.509,"EPHEMERIS_TYPE":0,"CLASSIFICATION_TYPE":"U","NORAD_CAT_ID":67081,"ELEMENT_SET_NO":999,"REV_AT_EPOCH":1326,"BSTAR":-0.01738886,"MEAN_MOTION_DOT":-0.00202964,"MEAN_MOTION_DDOT":0},{"OBJECT_NAME":"DELTA 1 DEB","OBJECT_ID":"1972-058BG","EPOCH":"2026-03-09T20:01:49.581696","MEAN_MOTION":14.88535429,"ECCENTRICITY":0.00965988,"INCLINATION":98.8237,"RA_OF_ASC_NODE":167.9558,"ARG_OF_PERICENTER":346.289,"MEAN_ANOMALY":13.5703,"EPHEMERIS_TYPE":0,"CLASSIFICATION_TYPE":"U","NORAD_CAT_ID":7890,"ELEMENT_SET_NO":999,"REV_AT_EPOCH":62566,"BSTAR":0.0011014398,"MEAN_MOTION_DOT":0.00011112,"MEAN_MOTION_DDOT":0}]
